IRIDIUM 150             
1 43257U 18030J   24338.55809410  .00000071  00000+0  18372-4 0  9997
2 43257  86.3984 164.8160 0001710  86.2782 273.8609 14.34218781349807
IRIDIUM 143             
1 43258U 18030K   24338.60883335  .00000055  00000+0  12713-4 0  9997
2 43258  86.3988 164.8655 0001481  81.4061 278.7302 14.34217930349745
IRIDIUM 161             
1 43478U 18047C   24338.49047622  .00001144  00000+0  33414-3 0  9997
2 43478  86.4476 322.7881 0002441  82.6456 277.5022 14.43265059344269
IRIDIUM 152             
1 43479U 18047D   24338.51178139  .00000036  00000+0  57452-5 0  9998
2 43479  86.3944 322.6383 0002370  87.1118 273.0349 14.34218672342126
IRIDIUM 147             
1 43480U 18047E   24338.51812398  .00000587  00000+0  20258-3 0  9995
2 43480  86.3946 322.6309 0002579  91.1146 269.0345 14.34214854342124
IRIDIUM 110             
1 43481U 18047F   24338.52446671  .00000578  00000+0  19920-3 0  9998
2 43481  86.3951 322.7055 0002678  84.9173 275.2328 14.34214119342113
IRIDIUM 162             
1 43482U 18047G   24338.41486342  .00001129  00000+0  32962-3 0  9990
2 43482  86.4471 322.7171 0002489  85.0823 275.0662 14.43292046344245
IRIDIUM 160             
1 43569U 18061A   24338.40053963  .00000782  00000+0  27201-3 0  9994
2 43569  86.3947 291.1150 0002421  90.6773 269.4700 14.34217394332998
